[{"OBJECT_NAME":"STARLINK-35067","OBJECT_ID":"2025-200H","EPOCH":"2026-03-09T17:26:36.614688","MEAN_MOTION":15.05647209,"ECCENTRICITY":0.00012821,"INCLINATION":97.6024,"RA_OF_ASC_NODE":139.7902,"ARG_OF_PERICENTER":92.5355,"MEAN_ANOMALY":267.6019,"EPHEMERIS_TYPE":0,"CLASSIFICATION_TYPE":"U","NORAD_CAT_ID":65527,"ELEMENT_SET_NO":999,"REV_AT_EPOCH":2913,"BSTAR":0.00019351418,"MEAN_MOTION_DOT":2.732e-5,"MEAN_MOTION_DDOT":0},{"OBJECT_NAME":"TITAN 34B AGENA D DEB","OBJECT_ID":"1983-078D","EPOCH":"2026-03-06T23:48:12.769344","MEAN_MOTION":7.15581812,"ECCENTRICITY":0.3926858,"INCLINATION":63.6108,"RA_OF_ASC_NODE":310.1454,"ARG_OF_PERICENTER":241.4177,"MEAN_ANOMALY":73.7863,"EPHEMERIS_TYPE":0,"CLASSIFICATION_TYPE":"U","NORAD_CAT_ID":23812,"ELEMENT_SET_NO":999,"REV_AT_EPOCH":17583,"BSTAR":0.00020855509,"MEAN_MOTION_DOT":1.48e-6,"MEAN_MOTION_DDOT":0}]
